$$SOE
2461288.500000000, A.D. 2026-Sep-05 00:00:00.0000, 2.790669091055791E+08, -1.168140518978071E+06, -2.367353433996977E+07,
2461295.500000000, A.D. 2026-Sep-12 00:00:00.0000, 2.783417654948716E+08, 1.142155998843980E+07, -1.897799752146525E+07,
2461302.500000000, A.D. 2026-Sep-19 00:00:00.0000, 2.769960614574068E+08, 2.398573233003708E+07, -1.424016349977569E+07,
2461309.500000000, A.D. 2026-Sep-26 00:00:00.0000, 2.750272943890805E+08, 3.649588768596888E+07, -9.470312452267561E+06,
2461316.500000000, A.D. 2026-Oct-03 00:00:00.0000, 2.724345491081966E+08, 4.892317668056090E+07, -4.678989593029447E+06,
2461323.500000000, A.D. 2026-Oct-10 00:00:00.0000, 2.692185529369639E+08, 6.123847846077707E+07, 1.230230119213499E+05,
2461330.500000000, A.D. 2026-Oct-17 00:00:00.0000, 2.653817247275772E+08, 7.341249579218298E+07, 4.924737416569710E+06,
2461337.500000000, A.D. 2026-Oct-24 00:00:00.0000, 2.609282169617529E+08, 8.541585574509916E+07, 9.714993461124104E+06,
2461344.500000000, A.D. 2026-Oct-31 00:00:00.0000, 2.558639501643339E+08, 9.721921542653508E+07, 1.448249497606580E+07,
2461351.500000000, A.D. 2026-Nov-07 00:00:00.0000, 2.501966392007087E+08, 1.087933722644525E+08, 1.921584831793009E+07,
2461358.500000000, A.D. 2026-Nov-14 00:00:00.0000, 2.439358109776492E+08, 1.201093790353196E+08, 2.390360308219577E+07,
2461365.500000000, A.D. 2026-Nov-21 00:00:00.0000, 2.370928111134351E+08, 1.311386634986623E+08, 2.853429497847487E+07,
2461372.500000000, A.D. 2026-Nov-28 00:00:00.0000, 2.296807980472631E+08, 1.418531487164697E+08, 3.309649044484669E+07,
2461379.500000000, A.D. 2026-Dec-05 00:00:00.0000, 2.217147277598042E+08, 1.522253723820410E+08, 3.757883230070443E+07,
2461386.500000000, A.D. 2026-Dec-12 00:00:00.0000, 2.132113289030214E+08, 1.622286071867018E+08, 4.197008631597680E+07,
2461393.500000000, A.D. 2026-Dec-19 00:00:00.0000, 2.041890662220588E+08, 1.718369811136070E+08, 4.625918847612153E+07,
2461400.500000000, A.D. 2026-Dec-26 00:00:00.0000, 1.946680920537401E+08, 1.810255956418526E+08, 5.043529246529135E+07,
2461407.500000000, A.D. 2027-Jan-02 00:00:00.0000, 1.846701862622036E+08, 1.897706405038938E+08, 5.448781688796593E+07,
2461414.500000000, A.D. 2027-Jan-09 00:00:00.0000, 1.742186849730207E+08, 1.980495038536299E+08, 5.840649176961424E+07,
2461421.500000000, A.D. 2027-Jan-16 00:00:00.0000, 1.633383985454452E+08, 2.058408767163356E+08, 6.218140387993330E+07,
2461428.500000000, A.D. 2027-Jan-23 00:00:00.0000, 1.520555193897893E+08, 2.131248505907094E+08, 6.580304042200124E+07,
2461435.500000000, A.D. 2027-Jan-30 00:00:00.0000, 1.403975205287778E+08, 2.198830071355435E+08, 6.926233063070460E+07,
2461442.500000000, A.D. 2027-Feb-06 00:00:00.0000, 1.283930461814312E+08, 2.260984993545574E+08, 7.255068485753931E+07,
2461449.500000000, A.D. 2027-Feb-13 00:00:00.0000, 1.160717948969813E+08, 2.317561246763489E+08, 7.566003090077093E+07,
2461456.500000000, A.D. 2027-Feb-20 00:00:00.0000, 1.034643939588146E+08, 2.368423884210317E+08, 7.858284737469921E+07,
2461463.500000000, A.D. 2027-Feb-27 00:00:00.0000, 9.060226761155176E+07, 2.413455538835009E+08, 8.131219342100325E+07,
2461470.500000000, A.D. 2027-Mar-06 00:00:00.0000, 7.751750338689820E+07, 2.452556805643553E+08, 8.384173439943330E+07,
2461477.500000000, A.D. 2027-Mar-13 00:00:00.0000, 6.424271622737608E+07, 2.485646523328371E+08, 8.616576366732579E+07,
2461484.500000000, A.D. 2027-Mar-20 00:00:00.0000, 5.081091058249626E+07, 2.512661945791359E+08, 8.827922033241332E+07,
2461491.500000000, A.D. 2027-Mar-27 00:00:00.0000, 3.725534198109381E+07, 2.533558798619968E+08, 9.017770282656983E+07,
2461498.500000000, A.D. 2027-Apr-03 00:00:00.0000, 2.360937955870318E+07, 2.548311222104742E+08, 9.185747824774094E+07,
2461505.500000000, A.D. 2027-Apr-10 00:00:00.0000, 9.906370827205483E+06, 2.556911604516477E+08, 9.331548749264571E+07,
2461512.500000000, A.D. 2027-Apr-17 00:00:00.0000, -3.820490135796665E+06, 2.559370310297563E+08, 9.454934625743708E+07,
2461519.500000000, A.D. 2027-Apr-24 00:00:00.0000, -1.753828993167852E+07, 2.555715308515376E+08, 9.555734202478454E+07,
2461526.500000000, A.D. 2027-May-01 00:00:00.0000, -3.121451725673386E+07, 2.545991708839177E+08, 9.633842718894221E+07,
2461533.500000000, A.D. 2027-May-08 00:00:00.0000, -4.481717733557288E+07, 2.530261220372701E+08, 9.689220857092603E+07,
2461540.500000000, A.D. 2027-May-15 00:00:00.0000, -5.831490014312071E+07, 2.508601551461104E+08, 9.721893379724942E+07,
2461547.500000000, A.D. 2027-May-22 00:00:00.0000, -7.167704336816078E+07, 2.481105733527460E+08, 9.731947475186735E+07,
2461554.500000000, A.D. 2027-May-29 00:00:00.0000, -8.487378629656121E+07, 2.447881363311961E+08, 9.719530796254785E+07,
2461561.500000000, A.D. 2027-Jun-05 00:00:00.0000, -9.787621340699539E+07, 2.409049804289965E+08, 9.684849242240164E+07,
2461568.500000000, A.D. 2027-Jun-12 00:00:00.0000, -1.106563894669912E+08, 2.364745361069632E+08, 9.628164540005215E+07,
2461575.500000000, A.D. 2027-Jun-19 00:00:00.0000, -1.231874263596573E+08, 2.315114426530666E+08, 9.549791651777349E+07,
2461582.500000000, A.D. 2027-Jun-26 00:00:00.0000, -1.354435413787606E+08, 2.260314607873684E+08, 9.450096037499267E+07,
2461589.500000000, A.D. 2027-Jul-03 00:00:00.0000, -1.474001069792399E+08, 2.200513840036588E+08, 9.329490802474695E+07,
2461596.500000000, A.D. 2027-Jul-10 00:00:00.0000, -1.590336921560837E+08, 2.135889494415824E+08, 9.188433760824428E+07,
2461603.500000000, A.D. 2027-Jul-17 00:00:00.0000, -1.703220957044933E+08, 2.066627489755270E+08, 9.027424443383762E+07,
2461610.500000000, A.D. 2027-Jul-24 00:00:00.0000, -1.812443715616315E+08, 1.992921411180013E+08, 8.847001075579908E+07,
2461617.500000000, A.D. 2027-Jul-31 00:00:00.0000, -1.917808462295864E+08, 1.914971645660791E+08, 8.647737548819926E+07,
2461624.500000000, A.D. 2027-Aug-07 00:00:00.0000, -2.019131289331553E+08, 1.832984550663982E+08, 8.430240419574338E+07,
2461631.500000000, A.D. 2027-Aug-14 00:00:00.0000, -2.116241172977883E+08, 1.747171658010619E+08, 8.195145975476398E+07,
2461638.500000000, A.D. 2027-Aug-21 00:00:00.0000, -2.208979984239751E+08, 1.657748883141904E+08, 7.943117352369642E+07,
2461645.500000000, A.D. 2027-Aug-28 00:00:00.0000, -2.297202424221458E+08, 1.564935754691388E+08, 7.674841694227235E+07,
2461652.500000000, A.D. 2027-Sep-04 00:00:00.0000, -2.380775901219503E+08, 1.468954691476853E+08, 7.391027400105980E+07,
2461659.500000000, A.D. 2027-Sep-11 00:00:00.0000, -2.459580369027294E+08, 1.370030322129664E+08, 7.092401478602599E+07,
2461666.500000000, A.D. 2027-Sep-18 00:00:00.0000, -2.533508130376680E+08, 1.268388842324717E+08, 6.779707013944831E+07,
2461673.500000000, A.D. 2027-Sep-25 00:00:00.0000, -2.602463608195998E+08, 1.164257409766814E+08, 6.453700748465446E+07,
2461680.500000000, A.D. 2027-Oct-02 00:00:00.0000, -2.666363088648713E+08, 1.057863577609251E+08, 6.115150785812771E+07,
2461687.500000000, A.D. 2027-Oct-09 00:00:00.0000, -2.725134440198385E+08, 9.494347661799377E+07, 5.764834417497607E+07,
2461694.500000000, A.D. 2027-Oct-16 00:00:00.0000, -2.778716812290323E+08, 8.391977719897367E+07, 5.403536073140403E+07,
2461701.500000000, A.D. 2027-Oct-23 00:00:00.0000, -2.827060315004457E+08, 7.273783131721400E+07, 5.032045392187074E+07,
2461708.500000000, A.D. 2027-Oct-30 00:00:00.0000, -2.870125679591934E+08, 6.142006164024940E+07, 4.651155417762291E+07,
2461715.500000000, A.D. 2027-Nov-06 00:00:00.0000, -2.907883914895245E+08, 4.998870552961782E+07, 4.261660930703653E+07,
2461722.500000000, A.D. 2027-Nov-13 00:00:00.0000, -2.940315982633806E+08, 3.846578180647293E+07, 3.864356922425909E+07,
2461729.500000000, A.D. 2027-Nov-20 00:00:00.0000, -2.967412465401652E+08, 2.687305810398417E+07, 3.460037158868913E+07,
2461736.500000000, A.D. 2027-Nov-27 00:00:00.0000, -2.989173213623790E+08, 1.523202161017860E+07, 3.049492840755883E+07,
2461743.500000000, A.D. 2027-Dec-04 00:00:00.0000, -3.005606993791556E+08, 3.563853934924440E+06, 2.633511381410079E+07,
2461750.500000000, A.D. 2027-Dec-11 00:00:00.0000, -3.016731145466561E+08, -8.110591050605293E+06, 2.212875294406884E+07,
2461757.500000000, A.D. 2027-Dec-18 00:00:00.0000, -3.022571246073732E+08, -1.977080692219434E+07, 1.788361180634198E+07,
2461764.500000000, A.D. 2027-Dec-25 00:00:00.0000, -3.023160783422226E+08, -3.139665214066910E+07, 1.360738807871231E+07,
2461771.500000000, A.D. 2028-Jan-01 00:00:00.0000, -3.018540836751311E+08, -4.296836538663365E+07, 9.307702769650698E+06,
$$EOE